NORAD_CAT_ID,OBJECT_NAME,OBJECT_TYPE,EPOCH,MEAN_MOTION,ECCENTRICITY,INCLINATION,RA_OF_ASC_NODE,ARG_OF_PERICENTER,MEAN_ANOMALY,BSTAR,MEAN_MOTION_DOT,MEAN_MOTION_DDOT,TLE_LINE0,TLE_LINE1,TLE_LINE2,SEMIMAJOR_AXIS,PERIOD,APOGEE,PERIGEE,DECAYED
53890.0,STARLINK-5050,PAYLOAD,2023-02-14 14:00:01,15.12500279,0.0001342,53.2114,272.7539,94.2009,184.5368,-0.055626,-0.00907449,0.0,0 STARLINK-5050,1 53890U 22119E   23045.58334491 -.00907449  00000-0 -55626-1 0  9991,2 53890  53.2114 272.7539 0001342  94.2009 184.5368 15.12500279 22801,6906.715,95.207,529.507,527.653,0.0
53890.0,STARLINK-5050,PAYLOAD,2023-02-14 20:00:01,15.12013499,0.0001414,53.2113,271.6272,85.1188,115.3979,-0.05787,-0.00929502,0.0,0 STARLINK-5050,1 53890U 22119E   23045.83334491 -.00929502  00000-0 -57870-1 0  9996,2 53890  53.2113 271.6272 0001414  85.1188 115.3979 15.12013499  1304,6908.197,95.237,531.039,529.085,0.0
53890.0,STARLINK-5050,PAYLOAD,2023-02-17 22:00:00,15.08859222,0.0001596,53.2141,257.7673,86.8608,320.1408,-0.0028174,-0.00044872,0.0,0 STARLINK-5050,1 53890U 22119E   23048.91667824 -.00044872  00000-0 -28174-2 0  9991,2 53890  53.2141 257.7673 0001596  86.8608 320.1408 15.08859222  1301,6917.822,95.436,540.791,538.583,0.0
53890.0,STARLINK-5050,PAYLOAD,2023-02-18 14:00:01,15.08835024,0.0001582,53.2152,254.7726,96.6099,333.5705,0.0012892,0.00020286,0.0,0 STARLINK-5050,1 53890U 22119E   23049.58334491  .00020286  00000-0  12892-2 0  9997,2 53890  53.2152 254.7726 0001582  96.6099 333.5705 15.08835024 23415,6917.896,95.438,540.855,538.666,0.0
53890.0,STARLINK-5050,PAYLOAD,2023-02-19 06:00:00,15.08840262,0.000152,53.2156,251.7803,86.9199,6.448,-0.0011784,-0.00018993,0.0,0 STARLINK-5050,1 53890U 22119E   23050.25001157 -.00018993  00000-0 -11784-2 0  9996,2 53890  53.2156 251.7803 0001520  86.9199   6.4480 15.08840262 23514,6917.88,95.438,540.796,538.693,0.0
53890.0,STARLINK-5050,PAYLOAD,2023-02-19 14:00:01,15.08839629,0.0001563,53.2158,250.2832,91.6884,13.2617,0.00071173,0.00011057,0.0,0 STARLINK-5050,1 53890U 22119E   23050.58334491  .00011057  00000-0  71173-3 0  9993,2 53890  53.2158 250.2832 0001563  91.6884  13.2617 15.08839629  1309,6917.882,95.438,540.828,538.665,0.0
53890.0,STARLINK-5050,PAYLOAD,2023-02-19 22:00:00,15.08831748,0.0001542,53.2158,248.7885,82.2832,34.273,0.00094132,0.00014721,0.0,0 STARLINK-5050,1 53890U 22119E   23050.91667824  .00014721  00000-0  94132-3 0  9990,2 53890  53.2158 248.7885 0001542  82.2832  34.2730 15.08831748 23616,6917.906,95.438,540.837,538.704,0.0
53890.0,STARLINK-5050,PAYLOAD,2023-02-20 14:00:01,15.08860083,0.0001494,53.2161,245.7938,92.9459,46.798,-0.0001828,-3.198e-05,0.0,0 STARLINK-5050,1 53890U 22119E   23051.58334491 -.00003198  00000-0 -18280-3 0  9993,2 53890  53.2161 245.7938 0001494  92.9459  46.7980 15.08860083  1306,6917.819,95.436,540.718,538.65,0.0
53890.0,STARLINK-5050,PAYLOAD,2023-02-20 22:00:01,15.08833565,0.0001461,53.216,244.2989,86.2867,65.1465,-0.00047064,-7.769e-05,0.0,0 STARLINK-5050,1 53890U 22119E   23051.91668981 -.00007769  00000-0 -47064-3 0  9994,2 53890  53.2160 244.2989 0001461  86.2867  65.1465 15.08833565 23760,6917.9,95.438,540.776,538.754,0.0
53890.0,STARLINK-5050,PAYLOAD,2023-02-21 11:38:25,15.08833538,0.0001537,53.2172,241.7468,88.8227,271.2941,1.5158e-05,-4.7e-07,0.0,0 STARLINK-5050,1 53890U 22119E   23052.48501420 -.00000047  00000-0  15158-4 0  9992,2 53890  53.2172 241.7468 0001537  88.8227 271.2941 15.08833538 24275,6917.9,95.438,540.828,538.702,0.0
53890.0,STARLINK-5050,PAYLOAD,2023-02-21 21:10:43,15.08838662,0.0001524,53.2179,239.9633,89.7714,270.3453,1.5485e-05,-4.2e-07,0.0,0 STARLINK-5050,1 53890U 22119E   23052.88245149 -.00000042  00000-0  15485-4 0  9997,2 53890  53.2179 239.9633 0001524  89.7714 270.3453 15.08838662 24330,6917.884,95.438,540.804,538.695,0.0
53890.0,STARLINK-5050,PAYLOAD,2023-02-22 13:04:35,15.08831616,0.0001475,53.2184,236.9895,89.7162,270.3999,-4.8615e-05,-1.061e-05,0.0,0 STARLINK-5050,1 53890U 22119E   23053.54485882 -.00001061  00000-0 -48615-4 0  9995,2 53890  53.2184 236.9895 0001475  89.7162 270.3999 15.08831616 24433,6917.906,95.438,540.791,538.751,0.0
53890.0,STARLINK-5050,PAYLOAD,2023-02-22 21:01:31,15.088359,0.0001687,53.2179,235.5025,94.6843,265.4342,-6.4907e-05,-1.321e-05,0.0,0 STARLINK-5050,1 53890U 22119E   23053.87605744 -.00001321  00000-0 -64907-4 0  9993,2 53890  53.2179 235.5025 0001687  94.6843 265.4342 15.08835900 24485,6917.893,95.438,540.925,538.591,0.0
53890.0,STARLINK-5050,PAYLOAD,2023-02-23 11:19:59,15.08838461,0.0001497,53.2175,232.8252,93.1757,266.9407,2.3875e-05,9.2e-07,0.0,0 STARLINK-5050,1 53890U 22119E   23054.47221360  .00000092  00000-0  23875-4 0  9999,2 53890  53.2175 232.8252 0001497  93.1757 266.9407 15.08838461 24157,6917.885,95.438,540.786,538.714,0.0
53890.0,STARLINK-5050,PAYLOAD,2023-02-23 12:55:22,15.08840181,0.0001376,53.2168,232.5275,86.0273,274.0877,6.7823e-06,-1.8e-06,0.0,0 STARLINK-5050,1 53890U 22119E   23054.53845321 -.00000180  00000-0  67823-5 0  9996,2 53890  53.2168 232.5275 0001376  86.0273 274.0877 15.08840181 24581,6917.88,95.438,540.697,538.793,0.0
53890.0,STARLINK-5050,PAYLOAD,2023-02-23 20:52:17,15.08845611,0.0001416,53.217,231.0406,85.568,274.5474,4.6214e-05,4.48e-06,0.0,0 STARLINK-5050,1 53890U 22119E   23054.86964804  .00000448  00000-0  46214-4 0  9996,2 53890  53.2170 231.0406 0001416  85.5680 274.5474 15.08845611 24632,6917.863,95.437,540.708,538.749,0.0
53890.0,STARLINK-5050,PAYLOAD,2023-02-24 11:10:46,15.08831818,0.0001596,53.2171,228.3647,81.4047,278.7126,3.8664e-05,3.27e-06,0.0,0 STARLINK-5050,1 53890U 22119E   23055.46581793  .00000327  00000-0  38664-4 0  9991,2 53890  53.2171 228.3647 0001596  81.4047 278.7126 15.08831818 24308,6917.905,95.438,540.874,538.666,0.0
53890.0,STARLINK-5050,PAYLOAD,2023-02-24 20:43:05,15.08835849,0.0001371,53.2169,226.5804,81.4409,278.6739,1.0075e-05,-1.28e-06,0.0,0 STARLINK-5050,1 53890U 22119E   23055.86325705 -.00000128  00000-0  10075-4 0  9990,2 53890  53.2169 226.5804 0001371  81.4409 278.6739 15.08835849 24782,6917.893,95.438,540.707,538.81,0.0
53890.0,STARLINK-5050,PAYLOAD,2023-02-25 04:40:01,15.08837062,0.0001364,53.2168,225.0939,81.0472,279.0675,7.7601e-06,-1.64e-06,0.0,0 STARLINK-5050,1 53890U 22119E   23056.19445689 -.00000164  00000-0  77601-5 0  9990,2 53890  53.2168 225.0939 0001364  81.0472 279.0675 15.08837062 24831,6917.889,95.438,540.698,538.811,0.0
53890.0,STARLINK-5050,PAYLOAD,2023-02-25 17:23:05,15.08841796,0.0001372,53.217,222.7149,82.1956,277.9192,3.5175e-05,2.72e-06,0.0,0 STARLINK-5050,1 53890U 22119E   23056.72437334  .00000272  00000-0  35175-4 0  9995,2 53890  53.2170 222.7149 0001372  82.1956 277.9192 15.08841796 24491,6917.875,95.437,540.689,538.791,0.0
53890.0,STARLINK-5050,PAYLOAD,2023-02-25 20:33:52,15.08845322,0.0001264,53.2176,222.1205,76.1428,283.9705,3.3853e-06,-2.34e-06,0.0,0 STARLINK-5050,1 53890U 22119E   23056.85685199 -.00000234  00000-0  33853-5 0  9994,2 53890  53.2176 222.1205 0001264  76.1428 283.9705 15.08845322 24936,6917.864,95.437,540.604,538.855,0.0
53890.0,STARLINK-5050,PAYLOAD,2023-02-26 10:52:20,15.08838833,0.0001434,53.2172,219.4446,76.8784,283.2368,5.9367e-05,6.57e-06,0.0,0 STARLINK-5050,1 53890U 22119E   23057.45301329  .00000657  00000-0  59367-4 0  9996,2 53890  53.2172 219.4446 0001434  76.8784 283.2368 15.08838833 25027,6917.884,95.438,540.741,538.757,0.0
53890.0,STARLINK-5050,PAYLOAD,2023-02-26 20:24:38,15.08851566,0.0001523,53.2172,217.6609,77.982,282.1343,8.2451e-05,1.025e-05,0.0,0 STARLINK-5050,1 53890U 22119E   23057.85044315  .00001025  00000-0  82451-4 0  9999,2 53890  53.2172 217.6609 0001523  77.9820 282.1343 15.08851566 25085,6917.845,95.437,540.764,538.656,0.0
53890.0,STARLINK-5050,PAYLOAD,2023-02-27 17:04:39,15.08846654,0.0001401,53.2183,213.795,87.0608,273.0544,6.4438e-05,7.38e-06,0.0,0 STARLINK-5050,1 53890U 22119E   23058.71156560  .00000738  00000-0  64438-4 0  9996,2 53890  53.2183 213.7950 0001401  87.0608 273.0544 15.08846654 24795,6917.86,95.437,540.694,538.756,0.0
53890.0,STARLINK-5050,PAYLOAD,2023-02-27 20:15:24,15.08857471,0.0001322,53.2183,213.1998,85.4456,274.6687,0.00010448,1.376e-05,0.0,0 STARLINK-5050,1 53890U 22119E   23058.84403696  .00001376  00000-0  10448-3 0  9995,2 53890  53.2183 213.1998 0001322  85.4456 274.6687 15.08857471 25230,6917.827,95.436,540.607,538.777,0.0
53890.0,STARLINK-5050,PAYLOAD,2023-02-28 10:33:56,15.08820827,0.0001432,53.2185,210.5244,102.6836,257.4317,-0.0002071,-3.581e-05,0.0,0 STARLINK-5050,1 53890U 22119E   23059.44023278 -.00003581  00000-0 -20710-3 0  9991,2 53890  53.2185 210.5244 0001432 102.6836 257.4317 15.08820827 24900,6917.939,95.439,540.795,538.813,0.0
53890.0,STARLINK-5050,PAYLOAD,2023-02-28 13:44:42,15.08822415,0.0001407,53.2186,209.9298,106.9717,253.1429,-0.00018741,-3.268e-05,0.0,0 STARLINK-5050,1 53890U 22119E   23059.57271229 -.00003268  00000-0 -18741-3 0  9999,2 53890  53.2186 209.9298 0001407 106.9717 253.1429 15.08822415 25340,6917.934,95.439,540.772,538.826,0.0
53890.0,STARLINK-5050,PAYLOAD,2023-02-28 16:55:28,15.08827159,0.0001407,53.2185,209.3365,100.1842,259.9309,-0.0001268,-2.305e-05,0.0,0 STARLINK-5050,1 53890U 22119E   23059.70519001 -.00002305  00000-0 -12680-3 0  9994,2 53890  53.2185 209.3365 0001407 100.1842 259.9309 15.08827159 24949,6917.92,95.438,540.758,538.811,0.0
53890.0,STARLINK-5050,PAYLOAD,2023-02-28 21:41:37,15.08828754,0.0001474,53.2195,208.4448,104.0522,256.0634,-0.0001235,-2.252e-05,0.0,0 STARLINK-5050,1 53890U 22119E   23059.90391051 -.00002252  00000-0 -12350-3 0  9994,2 53890  53.2195 208.4448 0001474 104.0522 256.0634 15.08828754 25395,6917.915,95.438,540.799,538.76,0.0
53890.0,STARLINK-5050,PAYLOAD,2023-03-01 18:21:37,15.08844967,0.0001181,53.2191,204.5775,107.826,252.2861,5.7384e-06,-1.97e-06,0.0,0 STARLINK-5050,1 53890U 22119E   23060.76501941 -.00000197  00000-0  57384-5 0  9994,2 53890  53.2191 204.5775 0001181 107.8260 252.2861 15.08844967 25109,6917.865,95.437,540.547,538.913,0.0
